start=new Date('2021-12-08T00:00:00.000Z').valueOf();
sats=[{"PERIAPSIS":"546.207","MEAN_MOTION_DOT":"0.00000186","PERIOD":"95.592","CLASSIFICATION_TYPE":"U","INCLINATION":"53.0546","MEAN_MOTION":"15.06399495","ARG_OF_PERICENTER":"69.8607","BSTAR":"0.00003137700000","OBJECT_TYPE":"PAYLOAD","GP_ID":"191296767","ELEMENT_SET_NO":"999","ECCENTRICITY":"0.00014550","TLE_LINE1":"1 45087U 20006AV  21341.62889029  .00000186  00000-0  31377-4 0  9997","SEMIMAJOR_AXIS":"6925.350","NORAD_CAT_ID":"45087","EPHEMERIS_TYPE":"0","MEAN_MOTION_DDOT":"0.0000000000000","APOAPSIS":"548.223","TLE_LINE2":"2 45087  53.0546  18.5723 0001455  69.8607 290.2538 15.06399495102942","CENTER_NAME":"EARTH","FILE":"3235143","LAUNCH_DATE":"2020-01-29","DECAY_DATE":null,"RCS_SIZE":"LARGE","SITE":"AFETR","COUNTRY_CODE":"US","REF_FRAME":"TEME","MEAN_ELEMENT_THEORY":"SGP4","MEAN_ANOMALY":"290.2538","OBJECT_ID":"2020-006AV","OBJECT_NAME":"STARLINK-1185","EPOCH":"2021-12-07T15:05:36.121056","TIME_SYSTEM":"UTC","REV_AT_EPOCH":"10294","RA_OF_ASC_NODE":"18.5723"},{"ARG_OF_PERICENTER":"70.4643","BSTAR":"0.00011156000000","INCLINATION":"53.0560","MEAN_MOTION":"15.06398393","PERIOD":"95.592","CLASSIFICATION_TYPE":"U","MEAN_MOTION_DOT":"0.00001381","PERIAPSIS":"546.207","SEMIMAJOR_AXIS":"6925.353","TLE_LINE1":"1 45088U 20006AW  21341.51831976  .00001381  00000-0  11156-3 0  9994","ECCENTRICITY":"0.00014610","NORAD_CAT_ID":"45088","ELEMENT_SET_NO":"999","GP_ID":"191268552","OBJECT_TYPE":"PAYLOAD","LAUNCH_DATE":"2020-01-29","CENTER_NAME":"EARTH","TLE_LINE2":"2 45088  53.0560  19.0863 0001461  70.4643 289.6503 15.06398393102923","APOAPSIS":"548.230","FILE":"3234816","EPHEMERIS_TYPE":"0","MEAN_MOTION_DDOT":"0.0000000000000","EPOCH":"2021-12-07T12:26:22.827264","RA_OF_ASC_NODE":"19.0863","REV_AT_EPOCH":"10292","TIME_SYSTEM":"UTC","OBJECT_ID":"2020-006AW","MEAN_ANOMALY":"289.6503","OBJECT_NAME":"STARLINK-1183","COUNTRY_CODE":"US","MEAN_ELEMENT_THEORY":"SGP4","REF_FRAME":"TEME","DECAY_DATE":null,"RCS_SIZE":"LARGE","SITE":"AFETR"},{"GP_ID":"191269804","ELEMENT_SET_NO":"999","NORAD_CAT_ID":"45089","TLE_LINE1":"1 45089U 20006AX  21341.51738023 -.00000639  00000-0 -24019-4 0  9994","ECCENTRICITY":"0.00014080","SEMIMAJOR_AXIS":"6925.370","OBJECT_TYPE":"PAYLOAD","MEAN_MOTION":"15.06392961","INCLINATION":"53.0558","BSTAR":"-0.00002401900000","ARG_OF_PERICENTER":"76.2550","PERIAPSIS":"546.260","MEAN_MOTION_DOT":"-0.00000639","CLASSIFICATION_TYPE":"U","PERIOD":"95.593","OBJECT_NAME":"STARLINK-1136","MEAN_ANOMALY":"283.8596","OBJECT_ID":"2020-006AX","TIME_SYSTEM":"UTC","REV_AT_EPOCH":"10293","RA_OF_ASC_NODE":"19.0406","EPOCH":"2021-12-07T12:25:01.651872","SITE":"AFETR","DECAY_DATE":null,"RCS_SIZE":"LARGE","REF_FRAME":"TEME","MEAN_ELEMENT_THEORY":"SGP4","COUNTRY_CODE":"US","FILE":"3234816","TLE_LINE2":"2 45089  53.0558  19.0406 0001408  76.2550 283.8596 15.06392961102930","APOAPSIS":"548.210","CENTER_NAME":"EARTH","LAUNCH_DATE":"2020-01-29","MEAN_MOTION_DDOT":"0.0000000000000","EPHEMERIS_TYPE":"0"},{"MEAN_MOTION_DOT":"0.00001356","CLASSIFICATION_TYPE":"U","PERIOD":"95.592","PERIAPSIS":"546.248","ARG_OF_PERICENTER":"52.0430","BSTAR":"0.00010993000000","INCLINATION":"53.0560","MEAN_MOTION":"15.06396880","OBJECT_TYPE":"PAYLOAD","TLE_LINE1":"1 45090U 20006AY  21341.50357831  .00001356  00000-0  10993-3 0  9999","ECCENTRICITY":"0.00014080","SEMIMAJOR_AXIS":"6925.358","NORAD_CAT_ID":"45090","GP_ID":"191269554","ELEMENT_SET_NO":"999","EPHEMERIS_TYPE":"0","MEAN_MOTION_DDOT":"0.0000000000000","LAUNCH_DATE":"2020-01-29","TLE_LINE2":"2 45090  53.0560  19.1418 0001408  52.0430 308.0686 15.06396880102921","APOAPSIS":"548.198","CENTER_NAME":"EARTH","FILE":"3234816","COUNTRY_CODE":"US","REF_FRAME":"TEME","MEAN_ELEMENT_THEORY":"SGP4","RCS_SIZE":"LARGE","DECAY_DATE":null,"SITE":"AFETR","EPOCH":"2021-12-07T12:05:09.165984","TIME_SYSTEM":"UTC","REV_AT_EPOCH":"10292","RA_OF_ASC_NODE":"19.1418","MEAN_ANOMALY":"308.0686","OBJECT_ID":"2020-006AY","OBJECT_NAME":"STARLINK-1176"},{"FILE":"3234816","CENTER_NAME":"EARTH","APOAPSIS":"548.340","TLE_LINE2":"2 45092  53.0560  19.2641 0001609  64.5448 295.5707 15.06395942102913","LAUNCH_DATE":"2020-01-29","MEAN_MOTION_DDOT":"0.0000000000000","EPHEMERIS_TYPE":"0","OBJECT_NAME":"STARLINK-1137","OBJECT_ID":"2020-006BA","MEAN_ANOMALY":"295.5707","RA_OF_ASC_NODE":"19.2641","REV_AT_EPOCH":"10291","TIME_SYSTEM":"UTC","EPOCH":"2021-12-07T11:27:59.526720","SITE":"AFETR","DECAY_DATE":null,"RCS_SIZE":"LARGE","MEAN_ELEMENT_THEORY":"SGP4","REF_FRAME":"TEME","COUNTRY_CODE":"US","MEAN_MOTION":"15.06395942","INCLINATION":"53.0560","BSTAR":"0.00007813000000","ARG_OF_PERICENTER":"64.5448","PERIAPSIS":"546.112","PERIOD":"95.592","CLASSIFICATION_TYPE":"U","MEAN_MOTION_DOT":"0.00000882","ELEMENT_SET_NO":"999","GP_ID":"191268803","NORAD_CAT_ID":"45092","SEMIMAJOR_AXIS":"6925.361","ECCENTRICITY":"0.00016090","TLE_LINE1":"1 45092U 20006BA  21341.47777230  .00000882  00000-0  78130-4 0  9997","OBJECT_TYPE":"PAYLOAD"},{"OBJECT_TYPE":"PAYLOAD","ELEMENT_SET_NO":"999","GP_ID":"191269053","NORAD_CAT_ID":"45093","SEMIMAJOR_AXIS":"6925.374","TLE_LINE1":"1 45093U 20006BB  21341.54044372 -.00000094  00000-0  12613-4 0  9990","ECCENTRICITY":"0.00013750","PERIAPSIS":"546.286","PERIOD":"95.593","CLASSIFICATION_TYPE":"U","MEAN_MOTION_DOT":"-0.00000094","MEAN_MOTION":"15.06391822","INCLINATION":"53.0561","BSTAR":"0.00001261300000","ARG_OF_PERICENTER":"67.0406","SITE":"AFETR","RCS_SIZE":"LARGE","DECAY_DATE":null,"MEAN_ELEMENT_THEORY":"SGP4","REF_FRAME":"TEME","COUNTRY_CODE":"US","OBJECT_NAME":"STARLINK-1142","OBJECT_ID":"2020-006BB","MEAN_ANOMALY":"293.0728","RA_OF_ASC_NODE":"18.9784","TIME_SYSTEM":"UTC","REV_AT_EPOCH":"10292","EPOCH":"2021-12-07T12:58:14.337408","MEAN_MOTION_DDOT":"0.0000000000000","EPHEMERIS_TYPE":"0","FILE":"3234816","CENTER_NAME":"EARTH","APOAPSIS":"548.191","TLE_LINE2":"2 45093  53.0561  18.9784 0001375  67.0406 293.0728 15.06391822102921","LAUNCH_DATE":"2020-01-29"},{"OBJECT_TYPE":"PAYLOAD","ELEMENT_SET_NO":"999","GP_ID":"191269304","SEMIMAJOR_AXIS":"6925.368","ECCENTRICITY":"0.00013430","TLE_LINE1":"1 45094U 20006BC  21341.48882860  .00001310  00000-0  10686-3 0  9994","NORAD_CAT_ID":"45094","PERIAPSIS":"546.303","CLASSIFICATION_TYPE":"U","PERIOD":"95.593","MEAN_MOTION_DOT":"0.00001310","INCLINATION":"53.0575","MEAN_MOTION":"15.06393549","ARG_OF_PERICENTER":"64.5425","BSTAR":"0.00010686000000","DECAY_DATE":null,"RCS_SIZE":"LARGE","SITE":"AFETR","COUNTRY_CODE":"US","MEAN_ELEMENT_THEORY":"SGP4","REF_FRAME":"TEME","OBJECT_ID":"2020-006BC","MEAN_ANOMALY":"295.5703","OBJECT_NAME":"STARLINK-1146","EPOCH":"2021-12-07T11:43:54.791040","RA_OF_ASC_NODE":"19.1990","TIME_SYSTEM":"UTC","REV_AT_EPOCH":"10292","EPHEMERIS_TYPE":"0","MEAN_MOTION_DDOT":"0.0000000000000","CENTER_NAME":"EARTH","TLE_LINE2":"2 45094  53.0575  19.1990 0001343  64.5425 295.5703 15.06393549102925","APOAPSIS":"548.163","FILE":"3234816","LAUNCH_DATE":"2020-01-29"},{"COUNTRY_CODE":"US","MEAN_ELEMENT_THEORY":"SGP4","REF_FRAME":"TEME","DECAY_DATE":null,"RCS_SIZE":"LARGE","SITE":"AFETR","EPOCH":"2021-12-07T11:49:14.123712","RA_OF_ASC_NODE":"19.1988","REV_AT_EPOCH":"10292","TIME_SYSTEM":"UTC","OBJECT_ID":"2020-006BD","MEAN_ANOMALY":"302.0344","OBJECT_NAME":"STARLINK-1147","EPHEMERIS_TYPE":"0","MEAN_MOTION_DDOT":"0.0000000000000","LAUNCH_DATE":"2020-01-29","CENTER_NAME":"EARTH","TLE_LINE2":"2 45095  53.0568  19.1988 0001376  58.0779 302.0344 15.06391969102920","APOAPSIS":"548.191","FILE":"3234816","OBJECT_TYPE":"PAYLOAD","SEMIMAJOR_AXIS":"6925.373","TLE_LINE1":"1 45095U 20006BD  21341.49252458 -.00000495  00000-0 -14322-4 0  9997","ECCENTRICITY":"0.00013760","NORAD_CAT_ID":"45095","ELEMENT_SET_NO":"999","GP_ID":"191270055","CLASSIFICATION_TYPE":"U","PERIOD":"95.593","MEAN_MOTION_DOT":"-0.00000495","PERIAPSIS":"546.285","ARG_OF_PERICENTER":"58.0779","BSTAR":"-0.00001432200000","INCLINATION":"53.0568","MEAN_MOTION":"15.06391969"},{"MEAN_MOTION_DDOT":"0.0000000000000","EPHEMERIS_TYPE":"0","FILE":"3234816","APOAPSIS":"548.267","TLE_LINE2":"2 45096  53.0566  18.9402 0001479  69.8085 290.3063 15.06390374102927","CENTER_NAME":"EARTH","LAUNCH_DATE":"2020-01-29","SITE":"AFETR","RCS_SIZE":"LARGE","DECAY_DATE":null,"REF_FRAME":"TEME","MEAN_ELEMENT_THEORY":"SGP4","COUNTRY_CODE":"US","OBJECT_NAME":"STARLINK-1152","MEAN_ANOMALY":"290.3063","OBJECT_ID":"2020-006BE","REV_AT_EPOCH":"10292","TIME_SYSTEM":"UTC","RA_OF_ASC_NODE":"18.9402","EPOCH":"2021-12-07T13:14:09.638880","PERIAPSIS":"546.219","MEAN_MOTION_DOT":"-0.00000836","PERIOD":"95.593","CLASSIFICATION_TYPE":"U","MEAN_MOTION":"15.06390374","INCLINATION":"53.0566","BSTAR":"-0.00003725100000","ARG_OF_PERICENTER":"69.8085","OBJECT_TYPE":"PAYLOAD","GP_ID":"191268303","ELEMENT_SET_NO":"999","NORAD_CAT_ID":"45096","TLE_LINE1":"1 45096U 20006BE  21341.55150045 -.00000836  00000-0 -37251-4 0  9999","ECCENTRICITY":"0.00014790","SEMIMAJOR_AXIS":"6925.378"},{"MEAN_MOTION_DDOT":"0.0000000000000","EPHEMERIS_TYPE":"0","LAUNCH_DATE":"2020-01-29","FILE":"3234816","TLE_LINE2":"2 45098  53.0567  19.0190 0001606  68.0380 292.0780 15.06391958102921","APOAPSIS":"548.350","CENTER_NAME":"EARTH","REF_FRAME":"TEME","MEAN_ELEMENT_THEORY":"SGP4","COUNTRY_CODE":"US","SITE":"AFETR","DECAY_DATE":null,"RCS_SIZE":"LARGE","REV_AT_EPOCH":"10292","TIME_SYSTEM":"UTC","RA_OF_ASC_NODE":"19.0190","EPOCH":"2021-12-07T12:47:37.097664","OBJECT_NAME":"STARLINK-1184","MEAN_ANOMALY":"292.0780","OBJECT_ID":"2020-006BG","MEAN_MOTION_DOT":"-0.00000659","CLASSIFICATION_TYPE":"U","PERIOD":"95.593","PERIAPSIS":"546.126","BSTAR":"-0.00002536700000","ARG_OF_PERICENTER":"68.0380","MEAN_MOTION":"15.06391958","INCLINATION":"53.0567","OBJECT_TYPE":"PAYLOAD","NORAD_CAT_ID":"45098","TLE_LINE1":"1 45098U 20006BG  21341.53306826 -.00000659  00000-0 -25367-4 0  9997","ECCENTRICITY":"0.00016060","SEMIMAJOR_AXIS":"6925.373","GP_ID":"191268553","ELEMENT_SET_NO":"999"}];
